[{"OBJECT_NAME":"STARLINK-5027","OBJECT_ID":"2023-013AR","EPOCH":"2026-03-09T23:36:38.846880","MEAN_MOTION":15.02533304,"ECCENTRICITY":0.00013528,"INCLINATION":43.0049,"RA_OF_ASC_NODE":311.7289,"ARG_OF_PERICENTER":271.1655,"MEAN_ANOMALY":88.9032,"EPHEMERIS_TYPE":0,"CLASSIFICATION_TYPE":"U","NORAD_CAT_ID":55370,"ELEMENT_SET_NO":999,"REV_AT_EPOCH":17160,"BSTAR":4.5036893e-5,"MEAN_MOTION_DOT":4.05e-6,"MEAN_MOTION_DDOT":0},{"OBJECT_NAME":"QPS-SAR-11 (YAMATSUMI-I)","OBJECT_ID":"2025-125A","EPOCH":"2026-03-09T06:07:28.619904","MEAN_MOTION":15.00627459,"ECCENTRICITY":0.00100447,"INCLINATION":42.0098,"RA_OF_ASC_NODE":22.3823,"ARG_OF_PERICENTER":210.04,"MEAN_ANOMALY":149.985,"EPHEMERIS_TYPE":0,"CLASSIFICATION_TYPE":"U","NORAD_CAT_ID":64340,"ELEMENT_SET_NO":999,"REV_AT_EPOCH":4060,"BSTAR":0.0005738522,"MEAN_MOTION_DOT":7.204e-5,"MEAN_MOTION_DDOT":0}]
